start=new Date('2022-05-13T00:00:00.000Z').valueOf();
sats=[{"MEAN_MOTION_DDOT":"0.0000000000000","MEAN_MOTION_DOT":"0.00001881","CENTER_NAME":"EARTH","PERIAPSIS":"545.418","DECAY_DATE":null,"MEAN_MOTION":"15.06405341","EPHEMERIS_TYPE":"0","ARG_OF_PERICENTER":"45.7290","RCS_SIZE":"LARGE","MEAN_ELEMENT_THEORY":"SGP4","COUNTRY_CODE":"US","OBJECT_ID":"2021-021BM","INCLINATION":"53.0560","LAUNCH_DATE":"2021-03-14","FILE":"3442533","REF_FRAME":"TEME","EPOCH":"2022-05-12T13:06:51.134688","REV_AT_EPOCH":"6545","TLE_LINE2":"2 47919  53.0560  73.6283 0002569  45.7290 314.3910 15.06405341 65459","BSTAR":"0.00014515000000","TLE_LINE1":"1 47919U 21021BM  22132.54642517  .00001881  00000-0  14515-3 0  9997","TIME_SYSTEM":"UTC","MEAN_ANOMALY":"314.3910","ECCENTRICITY":"0.00025690","CLASSIFICATION_TYPE":"U","PERIOD":"95.592","RA_OF_ASC_NODE":"73.6283","ELEMENT_SET_NO":"999","NORAD_CAT_ID":"47919","APOAPSIS":"548.976","SITE":"AFETR","OBJECT_TYPE":"PAYLOAD","OBJECT_NAME":"STARLINK-2405","SEMIMAJOR_AXIS":"6925.332","GP_ID":"203365954"},{"OBJECT_NAME":"STARLINK-2087","OBJECT_TYPE":"PAYLOAD","SEMIMAJOR_AXIS":"6925.351","GP_ID":"203391873","RA_OF_ASC_NODE":"118.0023","ELEMENT_SET_NO":"999","SITE":"AFETR","NORAD_CAT_ID":"47977","APOAPSIS":"548.730","TIME_SYSTEM":"UTC","MEAN_ANOMALY":"314.4781","ECCENTRICITY":"0.00021860","CLASSIFICATION_TYPE":"U","PERIOD":"95.592","BSTAR":"0.00000787130000","TLE_LINE1":"1 47977U 21024A   22132.68787988 -.00000165  00000-0  78713-5 0  9998","REV_AT_EPOCH":"6414","EPOCH":"2022-05-12T16:30:32.821632","TLE_LINE2":"2 47977  53.0554 118.0023 0002186  45.6387 314.4781 15.06399138 64141","LAUNCH_DATE":"2021-03-24","REF_FRAME":"TEME","FILE":"3442534","EPHEMERIS_TYPE":"0","ARG_OF_PERICENTER":"45.6387","MEAN_MOTION":"15.06399138","COUNTRY_CODE":"US","OBJECT_ID":"2021-024A","INCLINATION":"53.0554","RCS_SIZE":"LARGE","MEAN_ELEMENT_THEORY":"SGP4","MEAN_MOTION_DOT":"-0.00000165","CENTER_NAME":"EARTH","MEAN_MOTION_DDOT":"0.0000000000000","DECAY_DATE":null,"PERIAPSIS":"545.702"},{"OBJECT_NAME":"STARLINK-1647","OBJECT_TYPE":"PAYLOAD","SEMIMAJOR_AXIS":"6925.326","GP_ID":"203366961","RA_OF_ASC_NODE":"129.3905","ELEMENT_SET_NO":"999","SITE":"AFETR","NORAD_CAT_ID":"47978","APOAPSIS":"548.560","TIME_SYSTEM":"UTC","MEAN_ANOMALY":"309.9373","CLASSIFICATION_TYPE":"U","ECCENTRICITY":"0.00019770","PERIOD":"95.592","BSTAR":"0.00018441000000","TLE_LINE1":"1 47978U 21024B   22132.37733437  .00002467  00000-0  18441-3 0  9991","REV_AT_EPOCH":"6395","EPOCH":"2022-05-12T09:03:21.689568","TLE_LINE2":"2 47978  53.0537 129.3905 0001977  50.1790 309.9373 15.06407307 63955","LAUNCH_DATE":"2021-03-24","REF_FRAME":"TEME","FILE":"3442533","EPHEMERIS_TYPE":"0","ARG_OF_PERICENTER":"50.1790","MEAN_MOTION":"15.06407307","COUNTRY_CODE":"US","INCLINATION":"53.0537","OBJECT_ID":"2021-024B","RCS_SIZE":"LARGE","MEAN_ELEMENT_THEORY":"SGP4","CENTER_NAME":"EARTH","MEAN_MOTION_DOT":"0.00002467","MEAN_MOTION_DDOT":"0.0000000000000","DECAY_DATE":null,"PERIAPSIS":"545.822"},{"BSTAR":"-0.00208440000000","TLE_LINE1":"1 47979U 21024C   22133.00001157 -.00031212  00000-0 -20844-2 0  9991","TIME_SYSTEM":"UTC","MEAN_ANOMALY":"71.8601","PERIOD":"95.591","ECCENTRICITY":"0.00016720","CLASSIFICATION_TYPE":"U","ELEMENT_SET_NO":"999","RA_OF_ASC_NODE":"61.5910","SITE":"AFETR","APOAPSIS":"548.303","NORAD_CAT_ID":"47979","OBJECT_TYPE":"PAYLOAD","OBJECT_NAME":"STARLINK-2325","SEMIMAJOR_AXIS":"6925.281","GP_ID":"203391372","CENTER_NAME":"EARTH","MEAN_MOTION_DOT":"-0.00031212","MEAN_MOTION_DDOT":"0.0000000000000","DECAY_DATE":null,"PERIAPSIS":"545.988","ARG_OF_PERICENTER":"49.5664","EPHEMERIS_TYPE":"0","MEAN_MOTION":"15.06422178","OBJECT_ID":"2021-024C","INCLINATION":"53.0545","COUNTRY_CODE":"US","MEAN_ELEMENT_THEORY":"SGP4","RCS_SIZE":"LARGE","LAUNCH_DATE":"2021-03-24","REF_FRAME":"TEME","FILE":"3442534","REV_AT_EPOCH":"130","EPOCH":"2022-05-13T00:00:00.999648","TLE_LINE2":"2 47979  53.0545  61.5910 0001672  49.5664  71.8601 15.06422178  1305"},{"BSTAR":"-0.00051275000000","TLE_LINE1":"1 47980U 21024D   22133.00001157 -.00007913  00000-0 -51275-3 0  9997","TIME_SYSTEM":"UTC","MEAN_ANOMALY":"19.7366","ECCENTRICITY":"0.00019400","CLASSIFICATION_TYPE":"U","PERIOD":"95.591","RA_OF_ASC_NODE":"41.6139","ELEMENT_SET_NO":"999","SITE":"AFETR","NORAD_CAT_ID":"47980","APOAPSIS":"548.519","OBJECT_TYPE":"PAYLOAD","OBJECT_NAME":"STARLINK-2312","GP_ID":"203391623","SEMIMAJOR_AXIS":"6925.311","CENTER_NAME":"EARTH","MEAN_MOTION_DOT":"-0.00007913","MEAN_MOTION_DDOT":"0.0000000000000","DECAY_DATE":null,"PERIAPSIS":"545.832","EPHEMERIS_TYPE":"0","ARG_OF_PERICENTER":"51.6471","MEAN_MOTION":"15.06412267","COUNTRY_CODE":"US","OBJECT_ID":"2021-024D","INCLINATION":"53.0553","RCS_SIZE":"LARGE","MEAN_ELEMENT_THEORY":"SGP4","LAUNCH_DATE":"2021-03-24","REF_FRAME":"TEME","FILE":"3442534","REV_AT_EPOCH":"130","EPOCH":"2022-05-13T00:00:00.999648","TLE_LINE2":"2 47980  53.0553  41.6139 0001940  51.6471  19.7366 15.06412267  1303"},{"COUNTRY_CODE":"US","OBJECT_ID":"2021-024E","INCLINATION":"53.0535","RCS_SIZE":"LARGE","MEAN_ELEMENT_THEORY":"SGP4","EPHEMERIS_TYPE":"0","ARG_OF_PERICENTER":"52.1130","MEAN_MOTION":"15.06400694","DECAY_DATE":null,"PERIAPSIS":"545.709","MEAN_MOTION_DOT":"0.00002056","CENTER_NAME":"EARTH","MEAN_MOTION_DDOT":"0.0000000000000","TLE_LINE2":"2 47981  53.0535 127.9544 0002169  52.1130 308.0055 15.06400694 64000","REV_AT_EPOCH":"6400","EPOCH":"2022-05-12T16:45:08.540064","REF_FRAME":"TEME","FILE":"3442534","LAUNCH_DATE":"2021-03-24","CLASSIFICATION_TYPE":"U","ECCENTRICITY":"0.00021690","PERIOD":"95.592","TIME_SYSTEM":"UTC","MEAN_ANOMALY":"308.0055","TLE_LINE1":"1 47981U 21024E   22132.69801551  .00002056  00000-0  15689-3 0  9998","BSTAR":"0.00015689000000","SEMIMAJOR_AXIS":"6925.346","GP_ID":"203392374","OBJECT_NAME":"STARLINK-2303","OBJECT_TYPE":"PAYLOAD","SITE":"AFETR","NORAD_CAT_ID":"47981","APOAPSIS":"548.714","RA_OF_ASC_NODE":"127.9544","ELEMENT_SET_NO":"999"},{"OBJECT_ID":"2021-024F","INCLINATION":"53.0552","COUNTRY_CODE":"US","MEAN_ELEMENT_THEORY":"SGP4","RCS_SIZE":"LARGE","ARG_OF_PERICENTER":"40.2111","EPHEMERIS_TYPE":"0","MEAN_MOTION":"15.06416342","DECAY_DATE":null,"PERIAPSIS":"545.689","MEAN_MOTION_DOT":"-0.00014335","CENTER_NAME":"EARTH","MEAN_MOTION_DDOT":"0.0000000000000","TLE_LINE2":"2 47982  53.0552  56.5938 0002129  40.2111 263.5912 15.06416342  1305","REV_AT_EPOCH":"130","EPOCH":"2022-05-13T00:00:00.999648","REF_FRAME":"TEME","FILE":"3442534","LAUNCH_DATE":"2021-03-24","PERIOD":"95.591","ECCENTRICITY":"0.00021290","CLASSIFICATION_TYPE":"U","TIME_SYSTEM":"UTC","MEAN_ANOMALY":"263.5912","TLE_LINE1":"1 47982U 21024F   22133.00001157 -.00014335  00000-0 -94494-3 0  9995","BSTAR":"-0.00094494000000","GP_ID":"203390623","SEMIMAJOR_AXIS":"6925.298","OBJECT_NAME":"STARLINK-2317","OBJECT_TYPE":"PAYLOAD","SITE":"AFETR","APOAPSIS":"548.638","NORAD_CAT_ID":"47982","ELEMENT_SET_NO":"999","RA_OF_ASC_NODE":"56.5938"},{"BSTAR":"-0.00086944000000","TLE_LINE1":"1 47985U 21024J   22133.00001157 -.00013212  00000-0 -86944-3 0  9992","MEAN_ANOMALY":"301.9148","TIME_SYSTEM":"UTC","CLASSIFICATION_TYPE":"U","ECCENTRICITY":"0.00015400","PERIOD":"95.591","RA_OF_ASC_NODE":"61.6143","ELEMENT_SET_NO":"999","SITE":"AFETR","NORAD_CAT_ID":"47985","APOAPSIS":"548.246","OBJECT_NAME":"STARLINK-2308","OBJECT_TYPE":"PAYLOAD","GP_ID":"203390873","SEMIMAJOR_AXIS":"6925.314","CENTER_NAME":"EARTH","MEAN_MOTION_DOT":"-0.00013212","MEAN_MOTION_DDOT":"0.0000000000000","DECAY_DATE":null,"PERIAPSIS":"546.113","EPHEMERIS_TYPE":"0","ARG_OF_PERICENTER":"59.5031","MEAN_MOTION":"15.06411159","COUNTRY_CODE":"US","INCLINATION":"53.0543","OBJECT_ID":"2021-024J","RCS_SIZE":"LARGE","MEAN_ELEMENT_THEORY":"SGP4","LAUNCH_DATE":"2021-03-24","REF_FRAME":"TEME","FILE":"3442534","REV_AT_EPOCH":"131","EPOCH":"2022-05-13T00:00:00.999648","TLE_LINE2":"2 47985  53.0543  61.6143 0001540  59.5031 301.9148 15.06411159  1313"},{"MEAN_MOTION_DDOT":"0.0000000000000","MEAN_MOTION_DOT":"-0.00095112","CENTER_NAME":"EARTH","PERIAPSIS":"307.971","DECAY_DATE":null,"MEAN_MOTION":"15.87500886","EPHEMERIS_TYPE":"0","ARG_OF_PERICENTER":"161.5885","RCS_SIZE":"LARGE","MEAN_ELEMENT_THEORY":"SGP4","COUNTRY_CODE":"US","OBJECT_ID":"2021-024M","INCLINATION":"53.0442","LAUNCH_DATE":"2021-03-24","FILE":"3442534","REF_FRAME":"TEME","EPOCH":"2022-05-13T00:00:00.999648","REV_AT_EPOCH":"130","TLE_LINE2":"2 47988  53.0442  54.0439 0001978 161.5885 169.0051 15.87500886  1304","BSTAR":"-0.00035194000000","TLE_LINE1":"1 47988U 21024M   22133.00001157 -.00095112  00000-0 -35194-3 0  9995","TIME_SYSTEM":"UTC","MEAN_ANOMALY":"169.0051","CLASSIFICATION_TYPE":"U","ECCENTRICITY":"0.00019780","PERIOD":"90.709","RA_OF_ASC_NODE":"54.0439","ELEMENT_SET_NO":"999","NORAD_CAT_ID":"47988","APOAPSIS":"310.617","SITE":"AFETR","OBJECT_TYPE":"PAYLOAD","OBJECT_NAME":"STARLINK-2306","SEMIMAJOR_AXIS":"6687.429","GP_ID":"203392124"},{"MEAN_MOTION":"15.06399420","EPHEMERIS_TYPE":"0","ARG_OF_PERICENTER":"77.7783","RCS_SIZE":"LARGE","MEAN_ELEMENT_THEORY":"SGP4","COUNTRY_CODE":"US","OBJECT_ID":"2021-024N","INCLINATION":"53.0558","MEAN_MOTION_DDOT":"0.0000000000000","MEAN_MOTION_DOT":"-0.00002003","CENTER_NAME":"EARTH","PERIAPSIS":"546.127","DECAY_DATE":null,"EPOCH":"2022-05-13T00:00:00.999648","REV_AT_EPOCH":"130","TLE_LINE2":"2 47989  53.0558  36.6016 0001571  77.7783 281.1280 15.06399420  1305","LAUNCH_DATE":"2021-03-24","FILE":"3442534","REF_FRAME":"TEME","MEAN_ANOMALY":"281.1280","TIME_SYSTEM":"UTC","CLASSIFICATION_TYPE":"U","ECCENTRICITY":"0.00015710","PERIOD":"95.592","BSTAR":"-0.00011561000000","TLE_LINE1":"1 47989U 21024N   22133.00001157 -.00002003  00000-0 -11561-3 0  9995","OBJECT_NAME":"STARLINK-2305","OBJECT_TYPE":"PAYLOAD","SEMIMAJOR_AXIS":"6925.350","GP_ID":"203391874","RA_OF_ASC_NODE":"36.6016","ELEMENT_SET_NO":"999","NORAD_CAT_ID":"47989","APOAPSIS":"548.303","SITE":"AFETR"}];
